[{"OBJECT_NAME":"MTG-S1","OBJECT_ID":"2025-143A","EPOCH":"2026-04-01T07:45:30.864960","MEAN_MOTION":1.00272791,"ECCENTRICITY":0.0002222,"INCLINATION":0.6236,"RA_OF_ASC_NODE":331.716,"ARG_OF_PERICENTER":353.9558,"MEAN_ANOMALY":336.8554,"EPHEMERIS_TYPE":0,"CLASSIFICATION_TYPE":"U","NORAD_CAT_ID":64723,"ELEMENT_SET_NO":999,"REV_AT_EPOCH":264,"BSTAR":0,"MEAN_MOTION_DOT":-4.3e-7,"MEAN_MOTION_DDOT":0},{"OBJECT_NAME":"DROR 1","OBJECT_ID":"2025-148A","EPOCH":"2026-04-01T09:28:06.027744","MEAN_MOTION":1.00272481,"ECCENTRICITY":0.0003616,"INCLINATION":0.0443,"RA_OF_ASC_NODE":67.6138,"ARG_OF_PERICENTER":293.2233,"MEAN_ANOMALY":326.9232,"EPHEMERIS_TYPE":0,"CLASSIFICATION_TYPE":"U","NORAD_CAT_ID":64784,"ELEMENT_SET_NO":999,"REV_AT_EPOCH":252,"BSTAR":0,"MEAN_MOTION_DOT":-4.4e-7,"MEAN_MOTION_DDOT":0},{"OBJECT_NAME":"SHIYAN-29","OBJECT_ID":"2025-196A","EPOCH":"2026-03-31T19:34:56.815104","MEAN_MOTION":1.00280284,"ECCENTRICITY":0.00096013,"INCLINATION":28.741,"RA_OF_ASC_NODE":19.5106,"ARG_OF_PERICENTER":179.9499,"MEAN_ANOMALY":18.8663,"EPHEMERIS_TYPE":0,"CLASSIFICATION_TYPE":"U","NORAD_CAT_ID":65486,"ELEMENT_SET_NO":999,"REV_AT_EPOCH":210,"BSTAR":0,"MEAN_MOTION_DOT":-2.81e-6,"MEAN_MOTION_DDOT":0},{"OBJECT_NAME":"TJS-20","OBJECT_ID":"2025-238A","EPOCH":"2026-04-01T04:38:56.261472","MEAN_MOTION":1.00269903,"ECCENTRICITY":0.0008216,"INCLINATION":5.6411,"RA_OF_ASC_NODE":299.8408,"ARG_OF_PERICENTER":100.6306,"MEAN_ANOMALY":281.1967,"EPHEMERIS_TYPE":0,"CLASSIFICATION_TYPE":"U","NORAD_CAT_ID":66142,"ELEMENT_SET_NO":999,"REV_AT_EPOCH":156,"BSTAR":0,"MEAN_MOTION_DOT":5.0e-8,"MEAN_MOTION_DDOT":0},{"OBJECT_NAME":"CMS-03 (GSAT-7R)","OBJECT_ID":"2025-249B","EPOCH":"2026-04-01T11:33:01.545696","MEAN_MOTION":1.00272024,"ECCENTRICITY":0.0003896,"INCLINATION":0.0576,"RA_OF_ASC_NODE":265.423,"ARG_OF_PERICENTER":96.5713,"MEAN_ANOMALY":75.1031,"EPHEMERIS_TYPE":0,"CLASSIFICATION_TYPE":"U","NORAD_CAT_ID":66311,"ELEMENT_SET_NO":999,"REV_AT_EPOCH":157,"BSTAR":0,"MEAN_MOTION_DOT":-8.7e-7,"MEAN_MOTION_DDOT":0},{"OBJECT_NAME":"VIASAT-3 F2","OBJECT_ID":"2025-261A","EPOCH":"2026-04-01T10:49:20.734752","MEAN_MOTION":1.00273178,"ECCENTRICITY":0.0002243,"INCLINATION":0.0492,"RA_OF_ASC_NODE":270.4533,"ARG_OF_PERICENTER":169.0371,"MEAN_ANOMALY":193.6598,"EPHEMERIS_TYPE":0,"CLASSIFICATION_TYPE":"U","NORAD_CAT_ID":66454,"ELEMENT_SET_NO":999,"REV_AT_EPOCH":201,"BSTAR":0,"MEAN_MOTION_DOT":-2.43e-6,"MEAN_MOTION_DDOT":0},{"OBJECT_NAME":"SHIJIAN-28 (SJ-28)","OBJECT_ID":"2025-277A","EPOCH":"2026-04-01T11:45:15.372864","MEAN_MOTION":1.00271456,"ECCENTRICITY":6.8e-6,"INCLINATION":4.7358,"RA_OF_ASC_NODE":273.306,"ARG_OF_PERICENTER":138.1267,"MEAN_ANOMALY":71.5379,"EPHEMERIS_TYPE":0,"CLASSIFICATION_TYPE":"U","NORAD_CAT_ID":66549,"ELEMENT_SET_NO":999,"REV_AT_EPOCH":138,"BSTAR":0,"MEAN_MOTION_DOT":-3.78e-6,"MEAN_MOTION_DDOT":0},{"OBJECT_NAME":"TJS-22","OBJECT_ID":"2025-290A","EPOCH":"2026-04-01T01:55:26.478048","MEAN_MOTION":1.00272458,"ECCENTRICITY":0.0002511,"INCLINATION":1.7188,"RA_OF_ASC_NODE":285.6782,"ARG_OF_PERICENTER":1.6161,"MEAN_ANOMALY":357.4592,"EPHEMERIS_TYPE":0,"CLASSIFICATION_TYPE":"U","NORAD_CAT_ID":66990,"ELEMENT_SET_NO":999,"REV_AT_EPOCH":125,"BSTAR":0,"MEAN_MOTION_DOT":-2.1e-7,"MEAN_MOTION_DDOT":0},{"OBJECT_NAME":"TJS-23","OBJECT_ID":"2025-306A","EPOCH":"2026-03-31T19:32:04.325280","MEAN_MOTION":1.00273716,"ECCENTRICITY":0.0006461,"INCLINATION":5.7654,"RA_OF_ASC_NODE":297.8692,"ARG_OF_PERICENTER":117.4935,"MEAN_ANOMALY":242.3172,"EPHEMERIS_TYPE":0,"CLASSIFICATION_TYPE":"U","NORAD_CAT_ID":67226,"ELEMENT_SET_NO":999,"REV_AT_EPOCH":111,"BSTAR":0,"MEAN_MOTION_DOT":-5.0e-8,"MEAN_MOTION_DDOT":0},{"OBJECT_NAME":"FENGYUN 4C","OBJECT_ID":"2025-312A","EPOCH":"2026-04-01T04:03:38.713248","MEAN_MOTION":1.00271766,"ECCENTRICITY":5.54e-5,"INCLINATION":0.0103,"RA_OF_ASC_NODE":134.7157,"ARG_OF_PERICENTER":311.6885,"MEAN_ANOMALY":297.0245,"EPHEMERIS_TYPE":0,"CLASSIFICATION_TYPE":"U","NORAD_CAT_ID":67246,"ELEMENT_SET_NO":999,"REV_AT_EPOCH":100,"BSTAR":0,"MEAN_MOTION_DOT":-3.34e-6,"MEAN_MOTION_DDOT":0},{"OBJECT_NAME":"ELEKTRO-L 5","OBJECT_ID":"2026-028A","EPOCH":"2026-04-01T06:17:09.358368","MEAN_MOTION":1.00271828,"ECCENTRICITY":6.46e-5,"INCLINATION":0.4181,"RA_OF_ASC_NODE":293.0871,"ARG_OF_PERICENTER":211.239,"MEAN_ANOMALY":215.6611,"EPHEMERIS_TYPE":0,"CLASSIFICATION_TYPE":"U","NORAD_CAT_ID":67756,"ELEMENT_SET_NO":999,"REV_AT_EPOCH":48,"BSTAR":0,"MEAN_MOTION_DOT":-1.09e-6,"MEAN_MOTION_DDOT":0},{"OBJECT_NAME":"JAM-E JAM 1","OBJECT_ID":"2026-028B","EPOCH":"2026-04-01T06:13:32.186784","MEAN_MOTION":1.00267746,"ECCENTRICITY":0.0001698,"INCLINATION":0.438,"RA_OF_ASC_NODE":288.1728,"ARG_OF_PERICENTER":123.4695,"MEAN_ANOMALY":265.2759,"EPHEMERIS_TYPE":0,"CLASSIFICATION_TYPE":"U","NORAD_CAT_ID":67757,"ELEMENT_SET_NO":999,"REV_AT_EPOCH":35,"BSTAR":0,"MEAN_MOTION_DOT":1.45e-6,"MEAN_MOTION_DDOT":0},{"OBJECT_NAME":"ECHOSTAR 25","OBJECT_ID":"2026-045A","EPOCH":"2026-04-01T12:19:38.729280","MEAN_MOTION":1.00284227,"ECCENTRICITY":0.0002684,"INCLINATION":0.0437,"RA_OF_ASC_NODE":281.4877,"ARG_OF_PERICENTER":130.8268,"MEAN_ANOMALY":193.6166,"EPHEMERIS_TYPE":0,"CLASSIFICATION_TYPE":"U","NORAD_CAT_ID":68126,"ELEMENT_SET_NO":999,"REV_AT_EPOCH":22,"BSTAR":0,"MEAN_MOTION_DOT":4.7e-7,"MEAN_MOTION_DDOT":0}]
