MTG-S1                  
1 64723U 25143A   26091.32327390 -.00000043  00000+0  00000+0 0  9990
2 64723   0.6236 331.7160 0002222 353.9558 336.8554  1.00272791  2643
DROR 1                  
1 64784U 25148A   26091.39451421 -.00000044  00000+0  00000+0 0  9993
2 64784   0.0443  67.6138 0003616 293.2233 326.9232  1.00272481  2524
SHIYAN-29               
1 65486U 25196A   26090.81593536 -.00000281  00000+0  00000+0 0  9999
2 65486  28.7410  19.5106 0009601 179.9499  18.8663  1.00280284  2109
TJS-20                  
1 66142U 25238A   26091.19370673  .00000005  00000+0  00000+0 0  9996
2 66142   5.6411 299.8408 0008216 100.6306 281.1967  1.00269903  1567
CMS-03 (GSAT-7R)        
1 66311U 25249B   26091.48126789 -.00000087  00000+0  00000+0 0  9996
2 66311   0.0576 265.4230 0003896  96.5713  75.1031  1.00272024  1574
VIASAT-3 F2             
1 66454U 25261A   26091.45093443 -.00000243  00000+0  00000+0 0  9999
2 66454   0.0492 270.4533 0002243 169.0371 193.6598  1.00273178  2017
SHIJIAN-28 (SJ-28)      
1 66549U 25277A   26091.48976126 -.00000378  00000+0  00000+0 0  9991
2 66549   4.7358 273.3060 0000068 138.1267  71.5379  1.00271456  1382
TJS-22                  
1 66990U 25290A   26091.08016757 -.00000021  00000+0  00000+0 0  9992
2 66990   1.7188 285.6782 0002511   1.6161 357.4592  1.00272458  1251
TJS-23                  
1 67226U 25306A   26090.81393895 -.00000005  00000+0  00000+0 0  9996
2 67226   5.7654 297.8692 0006461 117.4935 242.3172  1.00273716  1113
FENGYUN 4C              
1 67246U 25312A   26091.16919807 -.00000334  00000+0  00000+0 0  9996
2 67246   0.0103 134.7157 0000554 311.6885 297.0245  1.00271766  1005
ELEKTRO-L 5             
1 67756U 26028A   26091.26191387 -.00000109  00000+0  00000+0 0  9993
2 67756   0.4181 293.0871 0000646 211.2390 215.6611  1.00271828   484
JAM-E JAM 1             
1 67757U 26028B   26091.25940031  .00000145  00000+0  00000+0 0  9990
2 67757   0.4380 288.1728 0001698 123.4695 265.2759  1.00267746   356
ECHOSTAR 25             
1 68126U 26045A   26091.51364270  .00000047  00000+0  00000+0 0  9995
2 68126   0.0437 281.4877 0002684 130.8268 193.6166  1.00284227   226
